[{"OBJECT_NAME":"STARLINK-4615","OBJECT_ID":"2022-104AJ","EPOCH":"2026-03-09T17:33:37.723104","MEAN_MOTION":15.08842231,"ECCENTRICITY":0.00012229,"INCLINATION":53.2169,"RA_OF_ASC_NODE":233.7698,"ARG_OF_PERICENTER":96.1,"MEAN_ANOMALY":264.0131,"EPHEMERIS_TYPE":0,"CLASSIFICATION_TYPE":"U","NORAD_CAT_ID":53620,"ELEMENT_SET_NO":999,"REV_AT_EPOCH":19575,"BSTAR":2.8121478e-5,"MEAN_MOTION_DOT":1.6e-6,"MEAN_MOTION_DDOT":0},{"OBJECT_NAME":"OBJECT A","OBJECT_ID":"2025-292A","EPOCH":"2026-03-09T21:45:44.016480","MEAN_MOTION":15.05451809,"ECCENTRICITY":0.00146319,"INCLINATION":97.6364,"RA_OF_ASC_NODE":145.598,"ARG_OF_PERICENTER":341.1551,"MEAN_ANOMALY":18.9132,"EPHEMERIS_TYPE":0,"CLASSIFICATION_TYPE":"U","NORAD_CAT_ID":66993,"ELEMENT_SET_NO":999,"REV_AT_EPOCH":1350,"BSTAR":0.00038878249,"MEAN_MOTION_DOT":5.535e-5,"MEAN_MOTION_DDOT":0}]
